CCSDS_OMM_VERS,COMMENT,CREATION_DATE,ORIGINATOR,OBJECT_NAME,OBJECT_ID,CENTER_NAME,REF_FRAME,TIME_SYSTEM,MEAN_ELEMENT_THEORY,EPOCH,MEAN_MOTION,ECCENTRICITY,INCLINATION,RA_OF_ASC_NODE,ARG_OF_PERICENTER,MEAN_ANOMALY,EPHEMERIS_TYPE,CLASSIFICATION_TYPE,NORAD_CAT_ID,ELEMENT_SET_NO,REV_AT_EPOCH,BSTAR,MEAN_MOTION_DOT,MEAN_MOTION_DDOT,SEMIMAJOR_AXIS,PERIOD,APOAPSIS,PERIAPSIS,OBJECT_TYPE,RCS_SIZE,COUNTRY_CODE,LAUNCH_DATE,SITE,DECAY_DATE,FILE,GP_ID,TLE_LINE0,TLE_LINE1,TLE_LINE2
2,GENERATED VIA SPACE-TRACK.ORG API,2021-04-12T02:18:20,18 SPCS,BREEZE-M R/B,2000-029B,EARTH,TEME,UTC,SGP4,2021-04-11T21:17:46.271904,1.00394428,0.0264302,12.5915,20.0077,290.9216,260.1702,0,U,26373,999,7644,0.0,-6e-08,0,42130.386,1434.343,36865.765,34638.736,ROCKET BODY,LARGE,CIS,2000-06-06,TTMTR,,3015786,175387418,0 BREEZE-M R/B,1 26373U 00029B   21101.88734111 -.00000006  00000-0  00000-0 0  9997,2 26373  12.5915  20.0077 0264302 290.9216 260.1702  1.00394428 76448
2,GENERATED VIA SPACE-TRACK.ORG API,2021-04-13T22:16:12,18 SPCS,BREEZE-M R/B,2000-029B,EARTH,TEME,UTC,SGP4,2021-04-12T20:53:42.743904,1.00394801,0.0264267,12.592,20.0009,290.9488,255.5361,0,U,26373,999,7644,0.0,-3e-08,0,42130.281,1434.337,36865.511,34638.782,ROCKET BODY,LARGE,CIS,2000-06-06,TTMTR,,3017354,175457537,0 BREEZE-M R/B,1 26373U 00029B   21102.87063361 -.00000003  00000-0  00000+0 0  9995,2 26373  12.5920  20.0009 0264267 290.9488 255.5361  1.00394801 76444
2,GENERATED VIA SPACE-TRACK.ORG API,2021-04-14T18:24:19,18 SPCS,BREEZE-M R/B,2000-029B,EARTH,TEME,UTC,SGP4,2021-04-14T08:25:42.720960,1.00395376,0.02642,12.5929,19.9905,290.9871,70.6205,0,U,26373,999,7647,0.0,1e-08,0,42130.12,1434.329,36865.063,34638.908,ROCKET BODY,LARGE,CIS,2000-06-06,TTMTR,,3018026,175480270,0 BREEZE-M R/B,1 26373U 00029B   21104.35118890  .00000001  00000-0  00000-0 0  9996,2 26373  12.5929  19.9905 0264200 290.9871  70.6205  1.00395376 76472
2,GENERATED VIA SPACE-TRACK.ORG API,2021-04-15T18:05:14,18 SPCS,BREEZE-M R/B,2000-029B,EARTH,TEME,UTC,SGP4,2021-04-14T19:56:13.718976,1.00395551,0.0264177,12.5932,19.9872,291.0004,243.9241,0,U,26373,999,7647,0.0,2e-08,0,42130.072,1434.327,36864.916,34638.957,ROCKET BODY,LARGE,CIS,2000-06-06,TTMTR,,3018605,175515028,0 BREEZE-M R/B,1 26373U 00029B   21104.83071434  .00000002  00000-0  00000-0 0  9992,2 26373  12.5932  19.9872 0264177 291.0004 243.9241  1.00395551 76472
2,GENERATED VIA SPACE-TRACK.ORG API,2021-04-16T02:14:43,18 SPCS,BREEZE-M R/B,2000-029B,EARTH,TEME,UTC,SGP4,2021-04-15T20:17:42.875232,1.00395926,0.0264133,12.5937,19.9801,291.0262,250.7268,0,U,26373,999,7648,0.0,5e-08,0,42129.967,1434.321,36864.623,34639.04,ROCKET BODY,LARGE,CIS,2000-06-06,TTMTR,,3018788,175543358,0 BREEZE-M R/B,1 26373U 00029B   21105.84563513  .00000005  00000-0  00000-0 0  9991,2 26373  12.5937  19.9801 0264133 291.0262 250.7268  1.00395926 76489
2,GENERATED VIA SPACE-TRACK.ORG API,2021-04-16T06:26:11,18 SPCS,BREEZE-M R/B,2000-029B,EARTH,TEME,UTC,SGP4,2021-04-15T20:41:42.586944,1.00395936,0.0264132,12.5937,19.98,291.0268,256.7491,0,U,26373,999,7647,0.0,6e-08,0,42129.964,1434.321,36864.616,34639.042,ROCKET BODY,LARGE,CIS,2000-06-06,TTMTR,,3018823,175558435,0 BREEZE-M R/B,1 26373U 00029B   21105.86229846  .00000006  00000-0  00000+0 0  9991,2 26373  12.5937  19.9800 0264132 291.0268 256.7491  1.00395936 76477
2,GENERATED VIA SPACE-TRACK.ORG API,2021-04-17T04:44:05,18 SPCS,BREEZE-M R/B,2000-029B,EARTH,TEME,UTC,SGP4,2021-04-16T20:10:17.981760,1.00396308,0.0264103,12.5943,19.9731,291.0508,250.2788,0,U,26373,999,7649,0.0,8e-08,0,42129.86,1434.316,36864.387,34639.062,ROCKET BODY,LARGE,CIS,2000-06-06,TTMTR,,3019479,175602750,0 BREEZE-M R/B,1 26373U 00029B   21106.84048590  .00000008  00000-0  00000-0 0  9998,2 26373  12.5943  19.9731 0264103 291.0508 250.2788  1.00396308 76496
2,GENERATED VIA SPACE-TRACK.ORG API,2021-04-18T04:07:11,18 SPCS,BREEZE-M R/B,2000-029B,EARTH,TEME,UTC,SGP4,2021-04-17T20:17:37.354272,1.00396687,0.0264074,12.5948,19.966,291.0749,253.5318,0,U,26373,999,7650,0.0,1e-07,0,42129.754,1434.31,36864.156,34639.081,ROCKET BODY,LARGE,CIS,2000-06-06,TTMTR,,3020087,175661612,0 BREEZE-M R/B,1 26373U 00029B   21107.84557123  .00000010  00000-0  00000-0 0  9999,2 26373  12.5948  19.9660 0264074 291.0749 253.5318  1.00396687 76503
2,GENERATED VIA SPACE-TRACK.ORG API,2021-04-20T03:39:30,18 SPCS,BREEZE-M R/B,2000-029B,EARTH,TEME,UTC,SGP4,2021-04-19T20:31:53.522976,1.00397407,0.0264014,12.596,19.9517,291.1206,259.9488,0,U,26373,999,7652,0.0,1.2e-07,0,42129.552,1434.3,36863.696,34639.138,ROCKET BODY,LARGE,CIS,2000-06-06,TTMTR,,3021350,175779312,0 BREEZE-M R/B,1 26373U 00029B   21109.85548059  .00000012  00000-0  00000-0 0  9992,2 26373  12.5960  19.9517 0264014 291.1206 259.9488  1.00397407 76522
2,GENERATED VIA SPACE-TRACK.ORG API,2021-04-20T06:36:12,18 SPCS,BREEZE-M R/B,2000-029B,EARTH,TEME,UTC,SGP4,2021-04-19T20:31:53.522976,1.00397407,0.0264014,12.596,19.9517,291.1206,259.9488,0,U,26373,999,7651,0.0,1.2e-07,0,42129.552,1434.3,36863.696,34639.138,ROCKET BODY,LARGE,CIS,2000-06-06,TTMTR,,3021381,175795531,0 BREEZE-M R/B,1 26373U 00029B   21109.85548059  .00000012  00000-0  00000+0 0  9991,2 26373  12.5960  19.9517 0264014 291.1206 259.9488  1.00397407 76511
2,GENERATED VIA SPACE-TRACK.ORG API,2021-04-21T04:37:33,18 SPCS,BREEZE-M R/B,2000-029B,EARTH,TEME,UTC,SGP4,2021-04-20T20:39:06.223680,1.00397773,0.0263998,12.5965,19.9446,291.1429,263.1799,0,U,26373,999,7653,0.0,1.1e-07,0,42129.45,1434.295,36863.524,34639.106,ROCKET BODY,LARGE,CIS,2000-06-06,TTMTR,,3022039,175839535,0 BREEZE-M R/B,1 26373U 00029B   21110.86048870  .00000011  00000-0  00000-0 0  9990,2 26373  12.5965  19.9446 0263998 291.1429 263.1799  1.00397773 76534
2,GENERATED VIA SPACE-TRACK.ORG API,2021-04-22T04:57:12,18 SPCS,BREEZE-M R/B,2000-029B,EARTH,TEME,UTC,SGP4,2021-04-21T19:03:07.389792,1.00398103,0.0263985,12.5971,19.9379,291.1632,240.5125,0,U,26373,999,7654,0.0,9e-08,0,42129.358,1434.29,36863.374,34639.071,ROCKET BODY,LARGE,CIS,2000-06-06,TTMTR,,3022711,175900327,0 BREEZE-M R/B,1 26373U 00029B   21111.79383553  .00000009  00000-0  00000-0 0  9990,2 26373  12.5971  19.9379 0263985 291.1632 240.5125  1.00398103 76549
2,GENERATED VIA SPACE-TRACK.ORG API,2021-04-22T06:26:11,18 SPCS,BREEZE-M R/B,2000-029B,EARTH,TEME,UTC,SGP4,2021-04-21T20:46:15.417408,1.00398125,0.0263984,12.5971,19.9374,291.165,266.3976,0,U,26373,999,7654,0.0,9e-08,0,42129.351,1434.29,36863.364,34639.069,ROCKET BODY,LARGE,CIS,2000-06-06,TTMTR,,3022733,175915909,0 BREEZE-M R/B,1 26373U 00029B   21111.86545622  .00000009  00000-0  00000+0 0  9994,2 26373  12.5971  19.9374 0263984 291.1650 266.3976  1.00398125 76547
2,GENERATED VIA SPACE-TRACK.ORG API,2021-04-22T19:36:56,18 SPCS,BREEZE-M R/B,2000-029B,EARTH,TEME,UTC,SGP4,2021-04-21T20:46:15.417408,1.00398125,0.0263984,12.5971,19.9374,291.165,266.3976,0,U,26373,999,7654,0.0,9e-08,0,42129.351,1434.29,36863.364,34639.069,ROCKET BODY,LARGE,CIS,2000-06-06,TTMTR,,3023174,175933786,0 BREEZE-M R/B,1 26373U 00029B   21111.86545622  .00000009  00000-0  00000-0 0  9995,2 26373  12.5971  19.9374 0263984 291.1650 266.3976  1.00398125 76547
2,GENERATED VIA SPACE-TRACK.ORG API,2021-04-23T03:05:05,18 SPCS,BREEZE-M R/B,2000-029B,EARTH,TEME,UTC,SGP4,2021-04-22T19:10:15.451680,1.00398442,0.0263971,12.5976,19.9308,291.1853,243.7265,0,U,26373,999,7655,0.0,6e-08,0,42129.263,1434.285,36863.218,34639.037,ROCKET BODY,LARGE,CIS,2000-06-06,TTMTR,,3023398,175959753,0 BREEZE-M R/B,1 26373U 00029B   21112.79878995  .00000006  00000-0  00000-0 0  9997,2 26373  12.5976  19.9308 0263971 291.1853 243.7265  1.00398442 76553
2,GENERATED VIA SPACE-TRACK.ORG API,2021-04-25T03:21:57,18 SPCS,BREEZE-M R/B,2000-029B,EARTH,TEME,UTC,SGP4,2021-04-24T18:56:42.861408,1.00399095,0.0263959,12.5987,19.9165,291.2299,243.1771,0,U,26373,999,7657,0.0,-5e-08,0,42129.08,1434.276,36862.98,34638.91,ROCKET BODY,LARGE,CIS,2000-06-06,TTMTR,,3024421,176073272,0 BREEZE-M R/B,1 26373U 00029B   21114.78938497 -.00000005  00000-0  00000-0 0  9992,2 26373  12.5987  19.9165 0263959 291.2299 243.1771  1.00399095 76570
2,GENERATED VIA SPACE-TRACK.ORG API,2021-04-25T18:16:16,18 SPCS,BREEZE-M R/B,2000-029B,EARTH,TEME,UTC,SGP4,2021-04-24T18:56:42.861408,1.00399095,0.0263959,12.5987,19.9165,291.2299,243.1771,0,U,26373,999,7657,0.0,-5e-08,0,42129.08,1434.276,36862.98,34638.91,ROCKET BODY,LARGE,CIS,2000-06-06,TTMTR,,3024661,176094564,0 BREEZE-M R/B,1 26373U 00029B   21114.78938497 -.00000005  00000-0  00000+0 0  9991,2 26373  12.5987  19.9165 0263959 291.2299 243.1771  1.00399095 76570
2,GENERATED VIA SPACE-TRACK.ORG API,2021-04-26T02:51:56,18 SPCS,BREEZE-M R/B,2000-029B,EARTH,TEME,UTC,SGP4,2021-04-25T19:31:43.398336,1.00399431,0.0263953,12.5992,19.9091,291.2539,253.3902,0,U,26373,999,7658,0.0,-1.2e-07,0,42128.986,1434.271,36862.858,34638.844,ROCKET BODY,LARGE,CIS,2000-06-06,TTMTR,,3025244,176137621,0 BREEZE-M R/B,1 26373U 00029B   21115.81369674 -.00000012  00000-0  00000-0 0  9990,2 26373  12.5992  19.9091 0263953 291.2539 253.3902  1.00399431 76589
2,GENERATED VIA SPACE-TRACK.ORG API,2021-04-26T18:26:18,18 SPCS,BREEZE-M R/B,2000-029B,EARTH,TEME,UTC,SGP4,2021-04-26T06:42:42.723360,1.00399579,0.0263944,12.5995,19.9057,291.2675,61.7997,0,U,26373,999,7658,0.0,-1.6e-07,0,42128.945,1434.269,36862.778,34638.841,ROCKET BODY,LARGE,CIS,2000-06-06,TTMTR,,3025671,176168055,0 BREEZE-M R/B,1 26373U 00029B   21116.27966115 -.00000016  00000-0  00000-0 0  9998,2 26373  12.5995  19.9057 0263944 291.2675  61.7997  1.00399579 76583
2,GENERATED VIA SPACE-TRACK.ORG API,2021-04-27T02:49:35,18 SPCS,BREEZE-M R/B,2000-029B,EARTH,TEME,UTC,SGP4,2021-04-26T19:29:42.516096,1.00399749,0.0263934,12.5998,19.9019,291.2787,254.3107,0,U,26373,999,7659,0.0,-2.1e-07,0,42128.897,1434.267,36862.687,34638.837,ROCKET BODY,LARGE,CIS,2000-06-06,TTMTR,,3025880,176197237,0 BREEZE-M R/B,1 26373U 00029B   21116.81229764 -.00000021  00000-0  00000-0 0  9996,2 26373  12.5998  19.9019 0263934 291.2787 254.3107  1.00399749 76590
